[{"OBJECT_NAME":"QIANFAN-24","OBJECT_ID":"2024-185F","EPOCH":"2026-03-09T23:10:13.381824","MEAN_MOTION":14.23940693,"ECCENTRICITY":0.00101265,"INCLINATION":88.9739,"RA_OF_ASC_NODE":66.9556,"ARG_OF_PERICENTER":26.7081,"MEAN_ANOMALY":333.4631,"EPHEMERIS_TYPE":0,"CLASSIFICATION_TYPE":"U","NORAD_CAT_ID":61557,"ELEMENT_SET_NO":999,"REV_AT_EPOCH":8243,"BSTAR":0.00040785949,"MEAN_MOTION_DOT":9.49e-6,"MEAN_MOTION_DDOT":0},{"OBJECT_NAME":"SL-12 R\/B(AUX MOTOR)","OBJECT_ID":"1984-106C","EPOCH":"2026-03-09T20:49:59.766240","MEAN_MOTION":14.23113842,"ECCENTRICITY":0.00211303,"INCLINATION":66.5506,"RA_OF_ASC_NODE":247.3522,"ARG_OF_PERICENTER":286.2895,"MEAN_ANOMALY":174.2156,"EPHEMERIS_TYPE":0,"CLASSIFICATION_TYPE":"U","NORAD_CAT_ID":15335,"ELEMENT_SET_NO":999,"REV_AT_EPOCH":15001,"BSTAR":6.6761706e-5,"MEAN_MOTION_DOT":6.6e-7,"MEAN_MOTION_DDOT":0}]
